QIANFAN-33              
1 61566U 24185Q   25355.28734431  .00000362  00000+0  25221-3 0  9991
2 61566  88.9799  77.8577 0005126 306.8273  53.2433 13.96556266 70354
QIANFAN-34              
1 61567U 24185R   25355.21770528  .00000389  00000+0  24486-3 0  9993
2 61567  88.9773  77.4180 0003439 317.3253  42.7659 14.02312833 70545
QIANFAN-35              
1 61568U 24185S   25355.24646694  .00000696  00000+0  27486-3 0  9997
2 61568  88.9801  75.8838 0004567 248.1765 111.8944 14.27981762 71391
QIANFAN-36              
1 61569U 24185T   25355.23010420  .00000195  00000+0  26371-3 0  9995
2 61569  88.9785  80.1628 0006436  35.5545 324.6036 13.55590978 69073
QIANFAN-37              
1 62238U 24232B   25355.21365048  .00000085  00000+0  11329-3 0  9994
2 62238  89.0012  40.4746 0002635  94.0853 266.0599 13.50979565100315
QIANFAN-38              
1 62239U 24232C   25355.23831996  .00000101  00000+0  13744-3 0  9999
2 62239  89.0018  40.3885 0015367 163.8188 196.3457 13.50982712100379
QIANFAN-39              
1 62240U 24232D   25355.19870862  .00000317  00000+0  12801-3 0  9993
2 62240  89.0008  36.3423 0017878  56.5904 303.6996 14.25397184102599
QIANFAN-40              
1 62241U 24232E   25355.19716914  .00000101  00000+0  13718-3 0  9990
2 62241  89.0046  39.9794 0014144 170.9753 189.1655 13.50982421100732
